      2.10          N: GNSS NAV DATA                        RINEX VERSION / TYPE
fic2rin                                 03/29/2023 00:17:36 PGM / RUN BY / DATE
                                                            END OF HEADER
8  23  3 28  1 59 44.0 -.114997848868D-03 -.181898940355D-11  .000000000000D+00
     .540000000000D+02  .480000000000D+02  .466055127352D-08 -.122946490998D+00
     .263750553131D-05  .842534343246D-02  .456161797047D-05  .515367430115D+04
     .179984000000D+06  .894069671631D-07  .230606407657D+01  .242143869400D-07
     .959401174156D+00  .289125000000D+03  .244061671885D+00 -.833749014707D-08
     .578595529398D-10  .100000000000D+01  .225500000000D+04  .000000000000D+00
     .240000000000D+01  .000000000000D+00  .512227416039D-08  .540000000000D+02
     .172800000000D+06  .400000000000D+01
29 23  3 28  7 59 44.0 -.592945609242D-03 -.170530256582D-11  .000000000000D+00
     .330000000000D+02  .419062500000D+02  .404231123563D-08  .312452131247D+01
     .222213566303D-05  .233636831399D-02  .454299151897D-05  .515356422043D+04
     .201584000000D+06 -.558793544769D-08  .240793300920D+01  .260770320892D-07
     .977216227721D+00  .300093750000D+03  .238664180334D+01 -.793461622290D-08
    -.160720980388D-10  .100000000000D+01  .225500000000D+04  .000000000000D+00
     .240000000000D+01  .000000000000D+00 -.102445483208D-07  .330000000000D+02
     .199200000000D+06  .400000000000D+01
8  23  3 28  7 59 44.0 -.115034170449D-03 -.181898940355D-11  .000000000000D+00
     .570000000000D+02  .646562500000D+02  .435875298813D-08  .302738853031D+01
     .336952507496D-05  .842674262822D-02  .433996319771D-05  .515368091583D+04
     .201584000000D+06 -.391155481339D-07  .230588632910D+01 -.670552253723D-07
     .959402347416D+00  .297875000000D+03  .244260605338D+00 -.807533637017D-08
     .467876631797D-10  .100000000000D+01  .225500000000D+04  .000000000000D+00
     .240000000000D+01  .000000000000D+00  .512227416039D-08  .570000000000D+02
     .199230000000D+06  .400000000000D+01
8  23  3 28  9 59 44.0 -.115047208965D-03 -.181898940355D-11  .000000000000D+00
     .750000000000D+02  .473437500000D+02  .440768359771D-08 -.220573841866D+01
     .245310366154D-05  .842899840791D-02  .459142029285D-05  .515367631721D+04
     .208784000000D+06 -.242143869400D-07  .230582837560D+01 -.428408384323D-07
     .959402742404D+00  .293468750000D+03  .244379065129D+00 -.805247827518D-08
     .385730352932D-10  .100000000000D+01  .225500000000D+04  .000000000000D+00
     .240000000000D+01  .000000000000D+00  .512227416039D-08  .750000000000D+02
     .201600000000D+06  .400000000000D+01
11 23  3 28  9 59 44.0 -.144066754729D-03 -.119371179608D-10  .000000000000D+00
     .206000000000D+03 -.401250000000D+02  .425982029576D-08 -.290839053275D+01
    -.197626650333D-05  .748893711716D-03  .423565506935D-05  .515372506523D+04
     .208784000000D+06  .186264514923D-08 -.285330069371D+01  .242143869400D-07
     .965309868094D+00  .300687500000D+03 -.273031996604D+01 -.810783772399D-08
     .101789954246D-09  .100000000000D+01  .225500000000D+04  .000000000000D+00
     .240000000000D+01  .000000000000D+00 -.884756445885D-08  .462000000000D+03
     .201600000000D+06  .400000000000D+01
29 23  3 28  9 59 44.0 -.592958182096D-03 -.170530256582D-11  .000000000000D+00
     .380000000000D+02  .507812500000D+02  .410624247005D-08 -.210874190440D+01
     .266730785370D-05  .233810802456D-02  .511668622494D-05  .515356066895D+04
     .208784000000D+06 -.335276126862D-07  .240787583104D+01  .316649675369D-07
     .977215989266D+00  .289500000000D+03  .238696565536D+01 -.795997442203D-08
    -.182150444440D-10  .100000000000D+01  .225500000000D+04  .000000000000D+00
     .240000000000D+01  .000000000000D+00 -.102445483208D-07  .380000000000D+02
     .201600000000D+06  .400000000000D+01
1  23  3 28 10  0  0.0  .198477879167D-03 -.352429196937D-11  .000000000000D+00
     .280000000000D+02 -.420312500000D+02  .376872841124D-08  .187578320727D+01
    -.224821269512D-05  .125910977367D-01  .499747693539D-05  .515365195084D+04
     .208800000000D+06 -.286847352982D-06 -.288764326470D+01 -.175088644028D-06
     .989946369686D+00  .299687500000D+03  .942814402701D+00 -.789461455667D-08
     .703600736366D-10  .100000000000D+01  .225500000000D+04  .000000000000D+00
     .240000000000D+01  .000000000000D+00  .465661287308D-08  .280000000000D+02
     .201600000000D+06  .400000000000D+01
2  23  3 28 10  0  0.0 -.610962044448D-03  .295585778076D-11  .000000000000D+00
     .670000000000D+02 -.250000000000D+02  .445589989183D-08  .865955538044D+00
    -.156834721565D-05  .198285183869D-01  .440701842308D-05  .515367993927D+04
     .208800000000D+06 -.158324837685D-06 -.298523344867D+01 -.309199094772D-06
     .967533983411D+00  .299750000000D+03 -.131483051014D+01 -.842820821156D-08
     .417874549009D-10  .100000000000D+01  .225500000000D+04  .000000000000D+00
     .240000000000D+01  .000000000000D+00 -.176951289177D-07  .670000000000D+02
     .201600000000D+06  .400000000000D+01
5  23  3 28 10  0  0.0 -.121193472296D-03 -.147792889038D-11  .000000000000D+00
     .800000000000D+01 -.752187500000D+02  .429410743824D-08 -.180855175237D+01
    -.381097197533D-05  .581769424025D-02  .684894621372D-05  .515364098549D+04
     .208800000000D+06  .968575477600D-07 -.190256146336D+01  .167638063431D-07
     .964900727943D+00  .242625000000D+03  .112907590917D+01 -.787282793488D-08
     .289297764699D-09  .100000000000D+01  .225500000000D+04  .000000000000D+00
     .240000000000D+01  .000000000000D+00 -.111758708954D-07  .800000000000D+01
     .201600000000D+06  .400000000000D+01
6  23  3 28 10  0  0.0  .584209803492D-03  .216004991671D-11  .000000000000D+00
     .130000000000D+02 -.398437500000D+02  .376765693803D-08  .207717396528D+01
    -.197254121304D-05  .289668119512D-02  .424496829510D-05  .515363745880D+04
     .208800000000D+06 -.167638063431D-07 -.289595143833D+01  .484287738800D-07
     .989182474826D+00  .311968750000D+03 -.784241502829D+00 -.783068332225D-08
     .260725145963D-10  .100000000000D+01  .225500000000D+04  .000000000000D+00
     .240000000000D+01  .000000000000D+00  .372529029846D-08  .130000000000D+02
     .201600000000D+06  .400000000000D+01
3  23  3 28 10  0  0.0 -.341485720128D-03  .761701812735D-11  .000000000000D+00
     .116000000000D+03 -.643750000000D+02  .408374153280D-08  .728197564717D+00
    -.356137752533D-05  .460060941987D-02  .785291194916D-05  .515370162773D+04
     .208800000000D+06 -.260770320892D-07 -.185676761584D+01  .316649675369D-07
     .977851935847D+00  .236031250000D+03  .100511470162D+01 -.789425739894D-08
     .230009580822D-09  .100000000000D+01  .225500000000D+04  .000000000000D+00
     .240000000000D+01  .000000000000D+00  .186264514923D-08  .116000000000D+03
     .201600000000D+06  .400000000000D+01
4  23  3 28 10  0  0.0  .324053689837D-05  .886757334229D-11  .000000000000D+00
     .860000000000D+02 -.248750000000D+02  .473091134716D-08 -.268007070350D+01
    -.128336250782D-05  .233938649762D-02  .789947807789D-05  .515369017792D+04
     .208800000000D+06 -.614672899246D-07 -.775281492397D+00 -.223517417908D-07
     .962531741311D+00  .232031250000D+03 -.299592858089D+01 -.793354474970D-08
     .221437795202D-09  .100000000000D+01  .225500000000D+04  .000000000000D+00
     .240000000000D+01  .000000000000D+00 -.465661287308D-08  .860000000000D+02
     .201600000000D+06  .400000000000D+01
12 23  3 28 10  0  0.0 -.356952194124D-03 -.466116034659D-11  .000000000000D+00
     .120000000000D+02  .622812500000D+02  .429446459597D-08  .470246705743D+00
     .323913991451D-05  .894491130020D-02  .846572220325D-05  .515363696289D+04
     .208800000000D+06 -.197440385818D-06  .135449527950D+01 -.279396772385D-07
     .965774691295D+00  .219593750000D+03  .135408700979D+01 -.799033282943D-08
    -.351443210449D-09  .100000000000D+01  .225500000000D+04  .000000000000D+00
     .240000000000D+01  .000000000000D+00 -.125728547573D-07  .120000000000D+02
     .201600000000D+06  .400000000000D+01
32 23  3 28 10  0  0.0 -.435980036855D-03 -.105728759081D-10  .000000000000D+00
     .190000000000D+02 -.250937500000D+02  .475126933801D-08 -.153793170830D+01
    -.121444463730D-05  .678774656262D-02  .757724046707D-05  .515372228432D+04
     .208800000000D+06  .100582838058D-06 -.818583984577D+00  .204890966415D-07
     .959405083073D+00  .231250000000D+03 -.222646180749D+01 -.794604527039D-08
     .265725354242D-09  .100000000000D+01  .225500000000D+04  .000000000000D+00
     .240000000000D+01  .000000000000D+00  .465661287308D-09  .190000000000D+02
     .201600000000D+06  .400000000000D+01
24 23  3 28 10  0  0.0 -.129477120936D-03 -.150066625793D-10  .000000000000D+00
     .240000000000D+02  .459375000000D+01  .530379235281D-08  .215848242402D+01
    -.149011611938D-07  .137644768693D-01  .774301588535D-05  .515365324974D+04
     .208800000000D+06 -.186264514923D-06  .150360073386D+00 -.309199094772D-06
     .934395423263D+00  .215781250000D+03  .888410141208D+00 -.812605276843D-08
    -.123219418298D-09  .100000000000D+01  .225500000000D+04  .000000000000D+00
     .240000000000D+01  .000000000000D+00  .232830643654D-08  .240000000000D+02
     .201600000000D+06  .400000000000D+01
